{
"type": "FeatureCollection",
"name": "ligned",
"crs": { "type": "name", "properties": { "name": "urn:ogc:def:crs:OGC:1.3:CRS84" } },
"features": [
{ "type": "Feature", "properties": { "id": 1 }, "geometry": { "type": "MultiPolygon", "coordinates": [ [ [ [ -8.667992949652215, 27.666682086035376 ], [ -8.667992949522521, 27.666682085549027 ], [ -8.693627956303978, 26.758923148977981 ], [ -11.016399454940355, 26.558740499915167 ], [ -11.485033564091459, 26.021225608324968 ], [ -11.672704797587842, 25.999738612026128 ], [ -11.716086771127946, 26.034416992128715 ], [ -12.003927950483213, 26.005582089065527 ], [ -12.000460112472963, 25.751630951637786 ], [ -12.002829376799802, 25.714695926947609 ], [ -12.001061459382807, 25.701776530438799 ], [ -12.005481252925295, 25.669886020109153 ], [ -12.017448693901862, 25.563402994147058 ], [ -12.047367296343314, 25.537292213834519 ], [ -12.042471525034713, 25.491598348287575 ], [ -12.009289075054193, 25.454608076178143 ], [ -12.00466529104051, 25.396334798241028 ], [ -12.004937278335428, 25.348193047039771 ], [ -12.02139250967824, 25.321334301666226 ], [ -12.070350222764253, 25.188604501744148 ], [ -12.224839006280114, 25.029763921509531 ], [ -12.545784014288426, 24.069104795843984 ], [ -12.587272701267807, 23.722673728341213 ], [ -12.763373850226259, 23.562120478108831 ], [ -12.906983141945229, 23.374993219202295 ], [ -13.08975860413301, 23.27490189467089 ], [ -13.245335336828564, 23.266198301233374 ], [ -13.436814392453858, 23.183514163576994 ], [ -13.719681179173042, 22.74398269498257 ], [ -13.993844372454713, 22.065102406856528 ], [ -14.167916241204981, 21.381870322011729 ], [ -16.011048769749628, 21.344416821540683 ], [ -16.990203031469882, 21.353120414978196 ], [ -16.990203031469882, 21.353120414978196 ], [ -16.972795844594856, 21.422749162478304 ], [ -16.426498738239694, 21.695199685762216 ], [ -15.173181283237769, 21.65168171857465 ], [ -14.729298017924586, 21.664737108730922 ], [ -14.668372863861993, 22.152138341231669 ], [ -14.439087574242494, 22.794436338190636 ], [ -14.392180390372143, 23.36800229576254 ], [ -13.848205800527555, 23.964198446232206 ], [ -13.053040319318487, 24.602607874834042 ], [ -12.90507923088076, 24.837604897646905 ], [ -12.63731836353351, 24.884603452249245 ], [ -12.323988999783028, 25.189229222562215 ], [ -12.293651791895444, 25.483846710382281 ], [ -12.189208670645284, 25.779768887257735 ], [ -12.095645041192014, 26.062635673976917 ], [ -11.670743514203409, 26.328974982728134 ], [ -11.455930923534781, 26.978688883275193 ], [ -11.216582104003169, 27.146233056947317 ], [ -10.772698838689987, 27.181047430697372 ], [ -10.24177963900167, 27.163640243822343 ], [ -9.937153868688704, 27.128825870072291 ], [ -9.771785593375949, 27.128825870072291 ], [ -9.632528098375735, 27.137529463509804 ], [ -9.397531075562874, 27.146233056947317 ], [ -9.163622001929703, 27.117946378275413 ], [ -9.002605523335705, 27.128825870072305 ], [ -8.841589044741706, 27.122298174994171 ], [ -8.840501095562015, 27.157112548744216 ], [ -8.836149298843257, 27.213685906088052 ], [ -8.831797502124502, 27.38775777483832 ], [ -8.83255609168928, 27.469213719866119 ], [ -8.849204688999528, 27.696735341870045 ], [ -8.810038518530718, 27.779419479526421 ], [ -8.705595397280558, 27.783771276245179 ], [ -8.667992949652215, 27.666682086035376 ] ] ] ] } }
]
}
